{
  "norad_id": 46061,
  "name": "STARLINK-1573",
  "history": [
    {
      "epoch": "2026-03-28T20:00:40.573152Z",
      "apogee_km": 476.12921608272245,
      "perigee_km": 474.2834736530822,
      "latitude_deg": -6.877018284261279e-06,
      "longitude_deg": -101.47722949332679,
      "height_km": 475.95927745752664,
      "semi_major_axis_km": 6853.343344867902,
      "eccentricity": 0.00013466,
      "inclination_deg": 53.1611,
      "raan_deg": 24.9404,
      "arg_perigee_deg": 80.9488,
      "mean_anomaly_deg": 279.1665,
      "mean_motion_rev_day": 15.30202922
    },
    {
      "epoch": "2026-03-29T02:16:52.903200Z",
      "apogee_km": 476.064768966914,
      "perigee_km": 474.2801671814268,
      "latitude_deg": -6.107839496780731e-05,
      "longitude_deg": 163.00165139455154,
      "height_km": 475.88871958372965,
      "semi_major_axis_km": 6853.30946807417,
      "eccentricity": 0.0001302,
      "inclination_deg": 53.1613,
      "raan_deg": 23.7282,
      "arg_perigee_deg": 78.2326,
      "mean_anomaly_deg": 281.882,
      "mean_motion_rev_day": 15.30214268
    },
    {
      "epoch": "2026-03-30T01:47:41.004096Z",
      "apogee_km": 475.9802362744322,
      "perigee_km": 474.47112581206693,
      "latitude_deg": -2.2689313942620756e-05,
      "longitude_deg": 164.78470070379802,
      "height_km": 476.0498077363179,
      "semi_major_axis_km": 6853.36268104325,
      "eccentricity": 0.0001101,
      "inclination_deg": 53.1625,
      "raan_deg": 19.1773,
      "arg_perigee_deg": 84.337,
      "mean_anomaly_deg": 275.7756,
      "mean_motion_rev_day": 15.30196446
    },
    {
      "epoch": "2026-03-30T04:55:47.408448Z",
      "apogee_km": 475.98404533259236,
      "perigee_km": 474.4516351903094,
      "latitude_deg": -3.831003769059847e-06,
      "longitude_deg": 117.02177561582202,
      "height_km": 476.031165241863,
      "semi_major_axis_km": 6853.354840261451,
      "eccentricity": 0.0001118,
      "inclination_deg": 53.1624,
      "raan_deg": 18.5698,
      "arg_perigee_deg": 83.6137,
      "mean_anomaly_deg": 276.4991,
      "mean_motion_rev_day": 15.30199072
    },
    {
      "epoch": "2026-03-31T12:16:50.916288Z",
      "apogee_km": 477.0234485919,
      "perigee_km": 473.52286375233143,
      "latitude_deg": 1.175093133255481e-05,
      "longitude_deg": -0.5984659073159942,
      "height_km": 475.80437123427845,
      "semi_major_axis_km": 6853.410156172115,
      "eccentricity": 0.00025539,
      "inclination_deg": 53.1627,
      "raan_deg": 12.5017,
      "arg_perigee_deg": 77.9513,
      "mean_anomaly_deg": 282.1774,
      "mean_motion_rev_day": 15.30180546
    },
    {
      "epoch": "2026-04-01T11:47:40.238880Z",
      "apogee_km": 476.2042003734041,
      "perigee_km": 474.3661125510416,
      "latitude_deg": 5.802153995107292e-07,
      "longitude_deg": 1.180242887446884,
      "height_km": 475.9658820591267,
      "semi_major_axis_km": 6853.422156462223,
      "eccentricity": 0.0001341,
      "inclination_deg": 53.1634,
      "raan_deg": 7.9516,
      "arg_perigee_deg": 76.3,
      "mean_anomaly_deg": 283.815,
      "mean_motion_rev_day": 15.30176527
    },
    {
      "epoch": "2026-04-02T11:18:28.408896Z",
      "apogee_km": 476.1105197427605,
      "perigee_km": 474.3061709802332,
      "latitude_deg": 3.102018433346922e-05,
      "longitude_deg": 2.9645978937012387,
      "height_km": 475.8183174764488,
      "semi_major_axis_km": 6853.345345361497,
      "eccentricity": 0.00013164,
      "inclination_deg": 53.163,
      "raan_deg": 3.4023,
      "arg_perigee_deg": 71.353,
      "mean_anomaly_deg": 288.7614,
      "mean_motion_rev_day": 15.30202252
    }
  ]
}